{
  "type": "FeatureCollection",
  "generator": "overpass-turbo",
  "copyright": "The data included in this document is from www.openstreetmap.org. The data is made available under ODbL.",
  "timestamp": "2024-09-25T18:45:46Z",
  "features": [
    {
      "type": "Feature",
      "properties": {
        "@id": "way/23789542",
        "addr:city": "Potsdam",
        "addr:country": "DE",
        "addr:housenumber": "30",
        "addr:postcode": "14471",
        "addr:street": "Haeckelstraße",
        "brand": "REWE",
        "brand:wikidata": "Q16968817",
        "brand:wikipedia": "en:REWE",
        "building": "supermarket",
        "building:levels": "1",
        "check_date:opening_hours": "2023-07-24",
        "contact:phone": "+40 331 9514499",
        "contact:website": "https://www.rewe.de/marktseite/potsdam/565313/rewe-markt-haeckelstr-30/",
        "name": "Rewe",
        "opening_hours": "Mo-Sa 06:00-22:00; PH off",
        "operator": "REWE Matthias Böker oHG",
        "shop": "supermarket",
        "wheelchair": "yes",
        "@geometry": "center"
      },
      "geometry": {
        "type": "Point",
        "coordinates": [13.0258744, 52.389981]
      },
      "id": "way/23789542"
    },
    {
      "type": "Feature",
      "properties": {
        "@id": "way/24838986",
        "addr:city": "Potsdam",
        "addr:country": "DE",
        "addr:housenumber": "265",
        "addr:postcode": "14480",
        "addr:street": "Großbeerenstraße",
        "brand": "Lidl",
        "brand:wikidata": "Q151954",
        "brand:wikipedia": "en:Lidl",
        "building": "supermarket",
        "building:levels": "1",
        "cash_withdrawal": "yes",
        "cash_withdrawal:fee": "no",
        "cash_withdrawal:limit": "200",
        "cash_withdrawal:purchase_minimum": "5",
        "cash_withdrawal:purchase_required": "yes",
        "cash_withdrawal:type": "checkout",
        "contact:facebook": "https://www.facebook.com/lidl",
        "contact:instagram": "https://www.instagram.com/lidlde/",
        "contact:snapchat": "https://www.snapchat.com/add/lidlde",
        "contact:twitter": "https://twitter.com/lidl",
        "contact:website": "https://www.lidl.de/f/potsdam/drewitz-grossbeerenstr-265.html",
        "contact:youtube": "https://www.youtube.com/user/Lidl",
        "name": "Lidl",
        "opening_hours": "Mo-Sa 08:00-21:00; PH,Su closed",
        "operator": "Lidl Vertriebs-GmbH & Co. KG (Großbeeren)",
        "operator:type": "business",
        "payment:american_express": "yes",
        "payment:apple_pay": "yes",
        "payment:cash": "yes",
        "payment:contactless": "yes",
        "payment:girocard": "yes",
        "payment:google_pay": "yes",
        "payment:maestro": "yes",
        "payment:visa": "yes",
        "ref:vatin": "DE813388874",
        "shop": "supermarket",
        "wheelchair": "yes",
        "@geometry": "center"
      },
      "geometry": {
        "type": "Point",
        "coordinates": [13.1311403, 52.3803015]
      },
      "id": "way/24838986"
    },
    {
      "type": "Feature",
      "properties": {
        "@id": "way/24839019",
        "addr:city": "Potsdam",
        "addr:country": "DE",
        "addr:housenumber": "4",
        "addr:postcode": "14480",
        "addr:street": "Flotowstraße",
        "addr:suburb": "Am Stern",
        "brand": "Netto Marken-Discount",
        "brand:wikidata": "Q879858",
        "brand:wikipedia": "de:Netto Marken-Discount",
        "building": "retail",
        "building:levels": "1",
        "name": "Netto Marken-Discount",
        "opening_hours": "Mo-Sa 07:00-22:00",
        "roof:levels": "1",
        "roof:shape": "gabled",
        "shop": "supermarket",
        "website": "https://www.netto-online.de/filialen/Potsdam/Flotowstr-4/7765/",
        "wheelchair": "yes",
        "@geometry": "center"
      },
      "geometry": {
        "type": "Point",
        "coordinates": [13.1367521, 52.381324]
      },
      "id": "way/24839019"
    },
    {
      "type": "Feature",
      "properties": {
        "@id": "way/26309073",
        "addr:city": "Potsdam",
        "addr:country": "DE",
        "addr:housenumber": "1a",
        "addr:postcode": "14478",
        "addr:street": "Erich-Weinert-Straße",
        "brand": "Netto",
        "brand:wikidata": "Q552652",
        "brand:wikipedia": "de:Netto (Handelskette)",
        "building": "supermarket",
        "contact:facebook": "https://www.facebook.com/nettodeutschland",
        "contact:instagram": "https://www.instagram.com/nettodeutschland/",
        "contact:pinterest": "https://www.pinterest.de/nettodeutschland/",
        "contact:website": "https://www.netto.de/geschaefte/potsdam/erich-weinert-strasse-1a/182e6d1db112442da50a919988155a8d/",
        "contact:youtube": "https://www.youtube.com/user/NETTODeutschland",
        "name": "Netto",
        "opening_hours": "PH,Su off; Mo-Sa 07:00-20:00",
        "operator": "Netto ApS & Co. KG",
        "operator:type": "business",
        "operator:wikidata": "Q552652",
        "operator:wikipedia": "de:Netto (Handelskette)",
        "shop": "supermarket",
        "wheelchair": "yes",
        "@geometry": "center"
      },
      "geometry": {
        "type": "Point",
        "coordinates": [13.0958396, 52.3643376]
      },
      "id": "way/26309073"
    },
    {
      "type": "Feature",
      "properties": {
        "@id": "way/26310563",
        "addr:city": "Potsdam",
        "addr:country": "DE",
        "addr:housenumber": "13",
        "addr:postcode": "14478",
        "addr:street": "Kuckucksruf",
        "brand": "Netto Marken-Discount",
        "brand:wikidata": "Q879858",
        "brand:wikipedia": "de:Netto Marken-Discount",
        "building": "retail",
        "building:levels": "1",
        "check_date:opening_hours": "2024-01-04",
        "contact:website": "https://www.netto-online.de/filialen/Potsdam/Kuckucksruf-13/7728/",
        "name": "Netto Marken-Discount",
        "opening_hours": "Mo-Sa 07:00-22:00; PH,Su closed",
        "operator": "Netto Marken-Discount AG",
        "shop": "supermarket",
        "wheelchair": "yes",
        "@geometry": "center"
      },
      "geometry": {
        "type": "Point",
        "coordinates": [13.0916269, 52.3703642]
      },
      "id": "way/26310563"
    },
    {
      "type": "Feature",
      "properties": {
        "@id": "way/27140528",
        "addr:city": "Potsdam",
        "addr:country": "DE",
        "addr:housenumber": "56",
        "addr:postcode": "14471",
        "addr:street": "Zeppelinstraße",
        "brand": "Lidl",
        "brand:wikidata": "Q151954",
        "brand:wikipedia": "en:Lidl",
        "building": "retail",
        "building:levels": "1",
        "cash_withdrawal": "yes",
        "cash_withdrawal:fee": "no",
        "cash_withdrawal:limit": "200",
        "cash_withdrawal:purchase_minimum": "5",
        "cash_withdrawal:purchase_required": "yes",
        "cash_withdrawal:type": "checkout",
        "contact:website": "https://www.lidl.de/f/potsdam/zeppelinstr-56.html",
        "name": "Lidl",
        "opening_hours": "Mo-Sa 07:00-21:00; Su, PH off",
        "payment:american_express": "yes",
        "payment:apple_pay": "yes",
        "payment:cash": "yes",
        "payment:contactless": "yes",
        "payment:girocard": "yes",
        "payment:google_pay": "yes",
        "payment:maestro": "yes",
        "payment:visa": "yes",
        "roof:shape": "gabled",
        "shop": "supermarket",
        "wheelchair": "yes",
        "@geometry": "center"
      },
      "geometry": {
        "type": "Point",
        "coordinates": [13.0304564, 52.3906482]
      },
      "id": "way/27140528"
    },
    {
      "type": "Feature",
      "properties": {
        "@id": "way/27455147",
        "addr:city": "Potsdam",
        "addr:country": "DE",
        "addr:housenumber": "98",
        "addr:postcode": "14478",
        "addr:street": "Horstweg",
        "brand": "Lidl",
        "brand:wikidata": "Q151954",
        "brand:wikipedia": "en:Lidl",
        "building": "supermarket",
        "building:levels": "1",
        "cash_withdrawal": "yes",
        "cash_withdrawal:fee": "no",
        "cash_withdrawal:limit": "200",
        "cash_withdrawal:purchase_minimum": "5",
        "cash_withdrawal:purchase_required": "yes",
        "cash_withdrawal:type": "checkout",
        "check_date": "2024-09-11",
        "check_date:opening_hours": "2023-08-12",
        "contact:facebook": "https://www.facebook.com/lidl",
        "contact:instagram": "https://www.instagram.com/lidlde/",
        "contact:snapchat": "https://www.snapchat.com/add/lidlde",
        "contact:twitter": "https://twitter.com/lidl",
        "contact:website": "https://www.lidl.de/f/potsdam/horstweg-98.html",
        "contact:youtube": "https://www.youtube.com/user/Lidl",
        "height": "10.3",
        "internet_access": "wlan",
        "internet_access:fee": "customers",
        "name": "Lidl",
        "opening_hours": "Mo-Sa 07:00-21:00, PH,Su off",
        "operator": "Lidl Vertriebs-GmbH & Co. KG (Großbeeren)",
        "operator:type": "business",
        "payment:american_express": "yes",
        "payment:apple_pay": "yes",
        "payment:cash": "yes",
        "payment:contactless": "yes",
        "payment:girocard": "yes",
        "payment:google_pay": "yes",
        "payment:maestro": "yes",
        "payment:visa": "yes",
        "ref:vatin": "DE813388874",
        "roof:colour": "red",
        "roof:levels": "0",
        "roof:material": "roof_tiles",
        "roof:shape": "gabled",
        "shop": "supermarket",
        "source:height": "laser rangefinder",
        "wheelchair": "yes",
        "@geometry": "center"
      },
      "geometry": {
        "type": "Point",
        "coordinates": [13.0860608, 52.3788429]
      },
      "id": "way/27455147"
    },
    {
      "type": "Feature",
      "properties": {
        "@id": "way/30752473",
        "addr:city": "Potsdam",
        "addr:country": "DE",
        "addr:housenumber": "120",
        "addr:postcode": "14471",
        "addr:street": "Zeppelinstraße",
        "brand": "ALDI Nord",
        "brand:wikidata": "Q41171373",
        "brand:wikipedia": "de:ALDI Nord",
        "building": "supermarket",
        "building:levels": "1",
        "check_date:opening_hours": "2022-06-11",
        "contact:website": "https://www.aldi-nord.de/filialen-und-oeffnungszeiten.html/l/potsdam/zeppelinstrasse-119/3182478",
        "name": "ALDI",
        "opening_hours": "Mo-Sa 07:00-21:00; PH,Su closed",
        "operator": "ALDI GmbH & Co. Kommanditgesellschaft",
        "operator:type": "business",
        "payment:american_express": "yes",
        "payment:apple_pay": "yes",
        "payment:cash": "yes",
        "payment:contactless": "yes",
        "payment:diners_club": "yes",
        "payment:discover_card": "yes",
        "payment:girocard": "yes",
        "payment:google_pay": "yes",
        "payment:maestro": "yes",
        "payment:mastercard": "yes",
        "payment:visa": "yes",
        "roof:colour": "red",
        "roof:levels": "1",
        "roof:material": "roof_tiles",
        "roof:shape": "gabled",
        "shop": "supermarket",
        "wheelchair": "yes",
        "@geometry": "center"
      },
      "geometry": {
        "type": "Point",
        "coordinates": [13.0217916, 52.3835115]
      },
      "id": "way/30752473"
    },
    {
      "type": "Feature",
      "properties": {
        "@id": "way/31578987",
        "addr:city": "Potsdam",
        "addr:country": "DE",
        "addr:housenumber": "2",
        "addr:postcode": "14467",
        "addr:street": "Holzmarktstraße",
        "brand": "Netto Marken-Discount",
        "brand:wikidata": "Q879858",
        "brand:wikipedia": "de:Netto Marken-Discount",
        "building": "retail",
        "building:levels": "1",
        "cash_withdrawal": "yes",
        "cash_withdrawal:fee": "no",
        "cash_withdrawal:limit": "200",
        "cash_withdrawal:purchase_minimum": "10",
        "cash_withdrawal:purchase_required": "yes",
        "cash_withdrawal:type": "checkout",
        "check_date:opening_hours": "2024-01-28",
        "contact:facebook": "https://de-de.facebook.com/nettomarkendiscount/",
        "contact:instagram": "https://www.instagram.com/netto_marken_discount/",
        "contact:website": "https://www.netto-online.de/filialen/Potsdam/Holzmarktstr-2/7751/",
        "contact:youtube": "https://www.youtube.com/user/nettotv",
        "name": "Netto Marken-Discount",
        "opening_hours": "Mo-Sa 06:30-22:00; PH,Su closed",
        "operator": "Netto Marken-Discount AG & Co. KG",
        "operator:type": "business",
        "roof:levels": "0",
        "roof:shape": "flat",
        "shop": "supermarket",
        "wheelchair": "yes",
        "@geometry": "center"
      },
      "geometry": {
        "type": "Point",
        "coordinates": [13.0691052, 52.4004665]
      },
      "id": "way/31578987"
    },
    {
      "type": "Feature",
      "properties": {
        "@id": "way/35063001",
        "addr:city": "Potsdam",
        "addr:country": "DE",
        "addr:housenumber": "12",
        "addr:postcode": "14480",
        "addr:street": "Zum Kirchsteigfeld",
        "brand": "Lidl",
        "brand:wikidata": "Q151954",
        "brand:wikipedia": "en:Lidl",
        "building": "supermarket",
        "building:levels": "1",
        "cash_withdrawal": "yes",
        "cash_withdrawal:fee": "no",
        "cash_withdrawal:limit": "200",
        "cash_withdrawal:purchase_minimum": "5",
        "cash_withdrawal:purchase_required": "yes",
        "cash_withdrawal:type": "checkout",
        "contact:email": "kontakt@lidl.de",
        "contact:phone": "+49 800 4353361",
        "contact:website": "https://www.lidl.de/f/potsdam/zum-kirchsteigfeld-12.html",
        "name": "Lidl",
        "opening_hours": "Mo-Sa 07:00-21:00; Su, PH off",
        "payment:american_express": "yes",
        "payment:apple_pay": "yes",
        "payment:cash": "yes",
        "payment:contactless": "yes",
        "payment:girocard": "yes",
        "payment:google_pay": "yes",
        "payment:maestro": "yes",
        "payment:visa": "yes",
        "roof:colour": "#333333",
        "roof:levels": "1",
        "roof:material": "roof_tiles",
        "roof:shape": "gabled",
        "shop": "supermarket",
        "@geometry": "center"
      },
      "geometry": {
        "type": "Point",
        "coordinates": [13.1309815, 52.3664457]
      },
      "id": "way/35063001"
    },
    {
      "type": "Feature",
      "properties": {
        "@id": "way/36828199",
        "addr:city": "Potsdam",
        "addr:country": "DE",
        "addr:housenumber": "37-38",
        "addr:postcode": "14469",
        "addr:street": "Potsdamer Straße",
        "addr:suburb": "Bornim",
        "brand": "Norma",
        "brand:wikidata": "Q450180",
        "building": "supermarket",
        "building:levels": "1",
        "contact:website": "https://www.norma-online.de/",
        "name": "Norma",
        "opening_hours": "PH off; Mo-Sa 08:00-20:00",
        "operator": "Norma Lebensmittelfilialbetrieb Stiftung & Co. KG",
        "operator:wikidata": "Q450180",
        "roof:colour": "red",
        "roof:material": "roof_tiles",
        "roof:shape": "hipped",
        "shop": "supermarket",
        "wheelchair": "yes",
        "@geometry": "center"
      },
      "geometry": {
        "type": "Point",
        "coordinates": [13.0182726, 52.4181582]
      },
      "id": "way/36828199"
    },
    {
      "type": "Feature",
      "properties": {
        "@id": "way/60279739",
        "addr:city": "Potsdam",
        "addr:country": "DE",
        "addr:housenumber": "140",
        "addr:postcode": "14469",
        "addr:street": "Kaiser-Friedrich-Straße",
        "brand": "Netto",
        "brand:wikidata": "Q552652",
        "building": "retail",
        "building:levels": "1",
        "contact:website": "https://www.netto.de/geschaefte/potsdam/kaiser-friedrich-strasse-140/2ba0056a92d74f72834cff1c4bb7ff86/",
        "name": "Netto",
        "opening_hours": "Mo-Sa 07:00-21:00",
        "shop": "supermarket",
        "wheelchair": "limited",
        "@geometry": "center"
      },
      "geometry": {
        "type": "Point",
        "coordinates": [13.0101115, 52.4057647]
      },
      "id": "way/60279739"
    },
    {
      "type": "Feature",
      "properties": {
        "@id": "way/61648346",
        "addr:city": "Potsdam",
        "addr:country": "DE",
        "addr:housenumber": "16",
        "addr:postcode": "14473",
        "addr:street": "Babelsberger Straße",
        "brand": "Kaufland",
        "brand:wikidata": "Q685967",
        "brand:wikipedia": "en:Kaufland",
        "check_date": "2023-03-12",
        "check_date:opening_hours": "2023-05-29",
        "contact:facebook": "https://www.facebook.com/kaufland/",
        "contact:instagram": "https://www.instagram.com/kaufland/",
        "contact:phone": "+49 331 298 790",
        "contact:pinterest": "https://www.pinterest.de/kaufland/",
        "contact:twitter": "https://twitter.com/kaufland",
        "contact:website": "https://filiale.kaufland.de/service/filiale.storeName=DE2850.html",
        "contact:youtube": "https://www.youtube.com/user/kauflandde",
        "indoor": "room",
        "layer": "1",
        "level": "1;2",
        "name": "Kaufland",
        "opening_hours": "Mo-Sa 06:00-22:00; PH,Su off",
        "operator": "Kaufland Vertrieb KDSH GmbH & Co. KG",
        "operator:type": "business",
        "operator:wikidata": "Q685967",
        "operator:wikipedia": "de:Kaufland",
        "payment:american_express": "yes",
        "payment:american_express_contactless": "yes",
        "payment:cash": "yes",
        "payment:diners_club": "yes",
        "payment:discover_card": "yes",
        "payment:girocard": "yes",
        "payment:girocard_contactless": "yes",
        "payment:maestro": "yes",
        "payment:maestro_contactless": "yes",
        "payment:mastercard": "yes",
        "payment:mastercard_contactless": "yes",
        "payment:visa": "yes",
        "payment:visa_contactless": "yes",
        "self_checkout": "yes",
        "shop": "supermarket",
        "surveillance": "indoor",
        "surveillance:type": "camera",
        "surveillance:zone": "shop",
        "wheelchair": "yes",
        "@geometry": "center"
      },
      "geometry": {
        "type": "Point",
        "coordinates": [13.0681037, 52.3923194]
      },
      "id": "way/61648346"
    },
    {
      "type": "Feature",
      "properties": {
        "@id": "way/88570361",
        "addr:city": "Potsdam",
        "addr:country": "DE",
        "addr:housenumber": "121",
        "addr:postcode": "14467",
        "addr:street": "Berliner Straße",
        "addr:suburb": "Berliner Vorstadt",
        "brand": "Lidl",
        "brand:wikidata": "Q151954",
        "brand:wikipedia": "en:Lidl",
        "building": "retail",
        "building:levels": "1",
        "cash_withdrawal": "yes",
        "cash_withdrawal:fee": "no",
        "cash_withdrawal:limit": "200",
        "cash_withdrawal:purchase_minimum": "5",
        "cash_withdrawal:purchase_required": "yes",
        "cash_withdrawal:type": "checkout",
        "check_date": "2023-06-02",
        "check_date:opening_hours": "2021-07-13",
        "contact:facebook": "https://www.facebook.com/lidl",
        "contact:instagram": "https://www.instagram.com/lidlde/",
        "contact:snapchat": "https://www.snapchat.com/add/lidlde",
        "contact:twitter": "https://twitter.com/lidl",
        "contact:website": "https://www.lidl.de/f/potsdam/berliner-str-121.html",
        "contact:youtube": "https://www.youtube.com/user/Lidl",
        "name": "Lidl",
        "opening_hours": "Mo-Sa 07:00-21:00; PH,Su off",
        "operator": "Lidl Vertriebs-GmbH & Co. KG (Großbeeren)",
        "operator:type": "business",
        "payment:american_express": "yes",
        "payment:apple_pay": "yes",
        "payment:cash": "yes",
        "payment:contactless": "yes",
        "payment:girocard": "yes",
        "payment:google_pay": "yes",
        "payment:maestro": "yes",
        "payment:visa": "yes",
        "roof:shape": "flat",
        "shop": "supermarket",
        "wheelchair": "yes",
        "@geometry": "center"
      },
      "geometry": {
        "type": "Point",
        "coordinates": [13.0742144, 52.4079652]
      },
      "id": "way/88570361"
    },
    {
      "type": "Feature",
      "properties": {
        "@id": "way/91216272",
        "addr:city": "Potsdam",
        "addr:country": "DE",
        "addr:housenumber": "39-42",
        "addr:postcode": "14469",
        "addr:street": "Potsdamer Straße",
        "brand": "Lidl",
        "brand:wikidata": "Q151954",
        "brand:wikipedia": "en:Lidl",
        "building": "supermarket",
        "building:levels": "1",
        "cash_withdrawal": "yes",
        "cash_withdrawal:fee": "no",
        "cash_withdrawal:limit": "200",
        "cash_withdrawal:purchase_minimum": "5",
        "cash_withdrawal:purchase_required": "yes",
        "cash_withdrawal:type": "checkout",
        "contact:email": "kontakt@lidl.de",
        "contact:phone": "+49 800 4353361",
        "contact:website": "https://www.lidl.de/f/potsdam/potsdamer-str-39-42.html",
        "name": "Lidl",
        "opening_hours": "Mo-Sa 08:00-21:00; PH off",
        "operator": "Lidl Stiftung & Co. KG",
        "operator:wikidata": "Q151954",
        "payment:american_express": "yes",
        "payment:apple_pay": "yes",
        "payment:cash": "yes",
        "payment:contactless": "yes",
        "payment:girocard": "yes",
        "payment:google_pay": "yes",
        "payment:maestro": "yes",
        "payment:visa": "yes",
        "roof:colour": "red",
        "roof:material": "roof_tiles",
        "roof:shape": "gabled",
        "shop": "supermarket",
        "wheelchair": "yes",
        "@geometry": "center"
      },
      "geometry": {
        "type": "Point",
        "coordinates": [13.0173249, 52.4183442]
      },
      "id": "way/91216272"
    },
    {
      "type": "Feature",
      "properties": {
        "@id": "way/93262984",
        "addr:city": "Potsdam",
        "addr:country": "DE",
        "addr:housenumber": "45",
        "addr:postcode": "14478",
        "addr:street": "An der Alten Zauche",
        "brand": "Rewe",
        "brand:wikidata": "Q16968817",
        "brand:wikipedia": "en:REWE",
        "building": "supermarket",
        "building:levels": "1",
        "check_date": "2024-04-08",
        "check_date:opening_hours": "2023-08-14",
        "contact:facebook": "https://www.facebook.com/rewepeterlehmann/",
        "contact:phone": "+49 331 505 5623",
        "contact:website": "https://www.rewe.de/marktseite/potsdam-schlaatz/4040210/rewe-markt-an-der-alten-zauche-45/",
        "internet_access": "wlan",
        "internet_access:fee": "no",
        "name": "Rewe",
        "opening_hours": "Mo-Sa 07:00-23:00; PH,Su off",
        "operator": "REWE Markt Peter Lehmann oHG",
        "operator:type": "business",
        "payment:cash": "yes",
        "payment:credit_cards": "yes",
        "payment:debit_cards": "yes",
        "roof:shape": "saltbox",
        "shop": "supermarket",
        "wheelchair": "yes",
        "@geometry": "center"
      },
      "geometry": {
        "type": "Point",
        "coordinates": [13.0891726, 52.3811039]
      },
      "id": "way/93262984"
    },
    {
      "type": "Feature",
      "properties": {
        "@id": "way/97424703",
        "addr:city": "Potsdam",
        "addr:country": "DE",
        "addr:housenumber": "5",
        "addr:postcode": "14482",
        "addr:street": "Friedrich-List-Straße",
        "addr:suburb": "Babelsberg",
        "brand": "Netto Marken-Discount",
        "brand:wikidata": "Q879858",
        "building": "supermarket",
        "check_date:opening_hours": "2024-01-25",
        "name": "Netto Marken-Discount",
        "opening_hours": "Mo-Sa 07:00-22:00; PH off",
        "shop": "supermarket",
        "toilets:wheelchair": "no",
        "website": "https://www.netto-online.de/filialen/Potsdam/Friedrich-List-Str-5/7744/",
        "wheelchair": "yes",
        "@geometry": "center"
      },
      "geometry": {
        "type": "Point",
        "coordinates": [13.0853421, 52.3924114]
      },
      "id": "way/97424703"
    },
    {
      "type": "Feature",
      "properties": {
        "@id": "way/101272368",
        "addr:city": "Potsdam",
        "addr:country": "DE",
        "addr:housenumber": "47-48",
        "addr:postcode": "14467",
        "addr:street": "Berliner Straße",
        "brand": "ALDI Nord",
        "brand:wikidata": "Q41171373",
        "brand:wikipedia": "de:ALDI Nord",
        "building": "supermarket",
        "building:levels": "2",
        "contact:website": "https://www.aldi-nord.de/filialen-und-oeffnungszeiten.html/l/potsdam/berliner-strasse-47-48/3181061",
        "name": "Aldi",
        "opening_hours": "Mo-Sa 07:00-21:00; PH,Su closed",
        "operator": "ALDI GmbH & Co. Kommanditgesellschaft",
        "operator:type": "business",
        "payment:american_express": "yes",
        "payment:apple_pay": "yes",
        "payment:cash": "yes",
        "payment:contactless": "yes",
        "payment:diners_club": "yes",
        "payment:discover_card": "yes",
        "payment:girocard": "yes",
        "payment:google_pay": "yes",
        "payment:maestro": "yes",
        "payment:mastercard": "yes",
        "payment:visa": "yes",
        "roof:levels": "1",
        "shop": "supermarket",
        "wheelchair": "yes",
        "@geometry": "center"
      },
      "geometry": {
        "type": "Point",
        "coordinates": [13.0785095, 52.4088053]
      },
      "id": "way/101272368"
    },
    {
      "type": "Feature",
      "properties": {
        "@id": "way/122600484",
        "addr:city": "Potsdam",
        "addr:country": "DE",
        "addr:housenumber": "10",
        "addr:postcode": "14476",
        "addr:street": "Von-Stechow-Straße",
        "addr:suburb": "Fahrland",
        "brand": "Nahkauf",
        "brand:wikidata": "Q57515238",
        "building": "retail",
        "name": "Nahkauf",
        "opening_hours": "Mo-Sa 07:00-20:00",
        "payment:credit_cards": "yes",
        "payment:debit_cards": "yes",
        "shop": "supermarket",
        "wheelchair": "yes",
        "@geometry": "center"
      },
      "geometry": {
        "type": "Point",
        "coordinates": [13.0209432, 52.467588]
      },
      "id": "way/122600484"
    },
    {
      "type": "Feature",
      "properties": {
        "@id": "way/129433243",
        "addr:city": "Potsdam",
        "addr:country": "DE",
        "addr:housenumber": "2",
        "addr:postcode": "14482",
        "addr:street": "Weidendamm",
        "addr:suburb": "Babelsberg",
        "brand": "ALDI Nord",
        "brand:wikidata": "Q41171373",
        "brand:wikipedia": "de:ALDI Nord",
        "building": "supermarket",
        "building:levels": "1",
        "contact:website": "https://www.aldi-nord.de/",
        "name": "ALDI Nord",
        "opening_hours": "Mo-Sa 07:00-21:00; PH,Su off",
        "operator:type": "business",
        "payment:american_express": "yes",
        "payment:apple_pay": "yes",
        "payment:cash": "yes",
        "payment:contactless": "yes",
        "payment:diners_club": "yes",
        "payment:discover_card": "yes",
        "payment:girocard": "yes",
        "payment:google_pay": "yes",
        "payment:maestro": "yes",
        "payment:mastercard": "yes",
        "payment:visa": "yes",
        "roof:levels": "0",
        "roof:shape": "gabled",
        "shop": "supermarket",
        "wheelchair": "yes",
        "@geometry": "center"
      },
      "geometry": {
        "type": "Point",
        "coordinates": [13.1062103, 52.38534]
      },
      "id": "way/129433243"
    },
    {
      "type": "Feature",
      "properties": {
        "@id": "node/175538233",
        "access": "customers",
        "automatic_door": "yes",
        "brand": "EDEKA",
        "brand:wikidata": "Q701755",
        "brand:wikipedia": "de:Edeka",
        "check_date:opening_hours": "2023-07-05",
        "contact:fax": "+49 331 817 0233",
        "contact:phone": "+49 331 817 0231",
        "contact:website": "https://www.edeka.de/eh/minden-hannover/edeka-klausner-brandenburger-str.-30-31/index.jsp",
        "drink:club-mate": "retail",
        "entrance": "main",
        "level": "0",
        "name": "EDEKA Brandenburger Straße",
        "opening_hours": "Mo-Sa 07:00-22:00; PH,Su off",
        "operator": "EDEKA Minden-Hannover Stiftung & Co. KG",
        "operator:type": "business",
        "operator:wikidata": "Q1283187",
        "operator:wikipedia": "de:Edeka Minden-Hannover",
        "shop": "supermarket",
        "wheelchair": "yes"
      },
      "geometry": {
        "type": "Point",
        "coordinates": [13.0566472, 52.4005722]
      },
      "id": "node/175538233"
    },
    {
      "type": "Feature",
      "properties": {
        "@id": "way/187190447",
        "addr:city": "Potsdam",
        "addr:country": "DE",
        "addr:housenumber": "162",
        "addr:postcode": "14482",
        "addr:street": "Rudolf-Breitscheid-Straße",
        "addr:suburb": "Babelsberg",
        "brand": "Norma",
        "brand:wikidata": "Q450180",
        "brand:wikipedia": "de:Norma (Handelskette)",
        "building": "supermarket",
        "building:levels": "1",
        "contact:website": "https://www.norma-online.de/",
        "name": "Norma",
        "opening_hours": "Mo-Sa 07:00-20:00; PH,Su off",
        "operator": "Norma Lebensmittelfilialbetrieb Stiftung & Co. KG",
        "operator:type": "business",
        "operator:wikidata": "Q450180",
        "operator:wikipedia": "de:Norma (Handelskette)",
        "ref:vatin": "DE132748925",
        "roof:levels": "1",
        "roof:material": "tar_paper",
        "roof:shape": "gabled",
        "shop": "supermarket",
        "wheelchair": "yes",
        "@geometry": "center"
      },
      "geometry": {
        "type": "Point",
        "coordinates": [13.1188672, 52.3958767]
      },
      "id": "way/187190447"
    },
    {
      "type": "Feature",
      "properties": {
        "@id": "way/190601098",
        "addr:city": "Potsdam",
        "addr:country": "DE",
        "addr:housenumber": "3",
        "addr:postcode": "14476",
        "addr:street": "In der Feldmark",
        "addr:suburb": "Golm",
        "brand": "REWE",
        "brand:wikidata": "Q16968817",
        "brand:wikipedia": "en:REWE",
        "building": "supermarket",
        "check_date:opening_hours": "2023-03-21",
        "contact:facebook": "https://www.facebook.com/Rewe/",
        "contact:instagram": "https://www.instagram.com/rewe/",
        "contact:phone": "+49 331 95131414",
        "contact:pinterest": "https://www.pinterest.de/rewe/",
        "contact:twitter": "https://twitter.com/REWE_Supermarkt",
        "contact:website": "https://www.rewe.de/marktseite/potsdam-ot-golm/4040421/rewe-markt-in-der-feldmark-3/",
        "contact:youtube": "https://www.youtube.com/user/REWEDeutschland",
        "name": "REWE",
        "opening_hours": "Mo-Sa 06:00-22:00; PH,Su off",
        "operator": "REWE Sven Pilaske oHG",
        "operator:type": "business",
        "organic": "yes",
        "payment:american_express": "yes",
        "payment:cash": "yes",
        "payment:girocard": "yes",
        "payment:mastercard": "yes",
        "payment:visa": "yes",
        "shop": "supermarket",
        "wheelchair": "yes",
        "@geometry": "center"
      },
      "geometry": {
        "type": "Point",
        "coordinates": [12.9747362, 52.4125214]
      },
      "id": "way/190601098"
    },
    {
      "type": "Feature",
      "properties": {
        "@id": "way/191875882",
        "addr:city": "Potsdam",
        "addr:country": "DE",
        "addr:housenumber": "221",
        "addr:postcode": "14480",
        "addr:street": "Großbeerenstraße",
        "brand": "ALDI Nord",
        "brand:wikidata": "Q41171373",
        "brand:wikipedia": "de:ALDI Nord",
        "building": "supermarket",
        "building:levels": "1",
        "contact:website": "https://www.aldi-nord.de/filialen-und-oeffnungszeiten.html/l/potsdam/grossbeerenstrasse-215-219/3182402",
        "name": "ALDI",
        "opening_hours": "Mo-Sa 07:00-20:00; PH,Su off",
        "payment:american_express": "yes",
        "payment:apple_pay": "yes",
        "payment:cash": "yes",
        "payment:contactless": "yes",
        "payment:diners_club": "yes",
        "payment:discover_card": "yes",
        "payment:girocard": "yes",
        "payment:google_pay": "yes",
        "payment:maestro": "yes",
        "payment:mastercard": "yes",
        "payment:visa": "yes",
        "roof:shape": "gabled",
        "shop": "supermarket",
        "website": "https://www.aldi-nord.de/",
        "wheelchair": "yes",
        "@geometry": "center"
      },
      "geometry": {
        "type": "Point",
        "coordinates": [13.1253377, 52.3817413]
      },
      "id": "way/191875882"
    },
    {
      "type": "Feature",
      "properties": {
        "@id": "way/234909760",
        "addr:city": "Potsdam",
        "addr:country": "DE",
        "addr:housenumber": "22",
        "addr:postcode": "14478",
        "addr:street": "Schilfhof",
        "brand": "REWE",
        "brand:wikidata": "Q16968817",
        "brand:wikipedia": "en:REWE",
        "building": "supermarket",
        "contact:facebook": "https://www.facebook.com/rewepeterlehmann/",
        "contact:instagram": "https://www.instagram.com/rewe/",
        "contact:phone": "+49 331 87005144",
        "contact:pinterest": "https://www.pinterest.de/rewe/",
        "contact:twitter": "https://twitter.com/REWE_Supermarkt",
        "contact:website": "https://www.rewe.de/marktseite/potsdam-schlaatz/4040420/rewe-markt-schilfhof-22/",
        "contact:youtube": "https://www.youtube.com/user/REWEDeutschland",
        "internet_access": "wlan",
        "name": "Rewe",
        "opening_hours": "Mo-Sa 07:00-22:00; Su,PH off",
        "operator": "REWE Markt Peter Lehmann oHG",
        "operator:type": "business",
        "organic": "yes",
        "payment:american_express": "yes",
        "payment:girocard": "yes",
        "payment:mastercard": "yes",
        "payment:visa": "yes",
        "shop": "supermarket",
        "wheelchair": "yes",
        "@geometry": "center"
      },
      "geometry": {
        "type": "Point",
        "coordinates": [13.0953289, 52.377929]
      },
      "id": "way/234909760"
    },
    {
      "type": "Feature",
      "properties": {
        "@id": "way/240007601",
        "addr:city": "Potsdam",
        "addr:country": "DE",
        "addr:housenumber": "8",
        "addr:postcode": "14473",
        "addr:street": "Lotte-Pulewka-Straße",
        "brand": "REWE",
        "brand:wikidata": "Q16968817",
        "brand:wikipedia": "de:Rewe",
        "building": "supermarket",
        "building:levels": "1",
        "check_date:opening_hours": "2024-05-16",
        "contact:facebook": "Rewe",
        "contact:instagram": "rewe",
        "contact:pinterest": "https://www.pinterest.de/rewe/",
        "contact:twitter": "REWE_Supermarkt",
        "contact:website": "https://www.rewe.de/angebote/potsdam-zentrum-ost/4040371/rewe-markt-lotte-pulewka-strasse-8/",
        "contact:youtube": "https://www.youtube.com/user/REWEDeutschland",
        "diet:vegan": "yes",
        "internet_access": "wlan",
        "name": "REWE",
        "opening_hours": "Mo-Sa 06:00-22:00",
        "operator": "REWE Toni Zach oHG",
        "operator:type": "business",
        "organic": "yes",
        "roof:shape": "flat",
        "shop": "supermarket",
        "wheelchair": "yes",
        "@geometry": "center"
      },
      "geometry": {
        "type": "Point",
        "coordinates": [13.0781801, 52.3943604]
      },
      "id": "way/240007601"
    },
    {
      "type": "Feature",
      "properties": {
        "@id": "node/262989157",
        "addr:city": "Potsdam",
        "addr:country": "DE",
        "addr:housenumber": "27",
        "addr:postcode": "14471",
        "addr:street": "Breite Straße",
        "brand": "REWE",
        "brand:wikidata": "Q16968817",
        "brand:wikipedia": "en:REWE",
        "check_date:opening_hours": "2024-05-02",
        "contact:facebook": "https://www.facebook.com/Rewe/",
        "contact:instagram": "https://www.instagram.com/rewe/",
        "contact:phone": "+49 331 951 40768",
        "contact:pinterest": "https://www.pinterest.de/rewe/",
        "contact:twitter": "https://twitter.com/REWE_Supermarkt",
        "contact:website": "https://www.rewe.de/marktseite/potsdam/4040388/rewe-markt-breite-str-27/",
        "contact:youtube": "https://www.youtube.com/user/REWEDeutschland",
        "drink:club-mate": "retail",
        "level": "0",
        "name": "Rewe",
        "opening_hours": "Mo-Sa 07:00-22:00; Su,PH off",
        "operator": "REWE Markt Siegfried Grube oHG",
        "operator:type": "business",
        "organic": "yes",
        "payment:american_express": "yes",
        "payment:cash": "yes",
        "payment:girocard": "yes",
        "payment:maestro": "yes",
        "payment:mastercard": "yes",
        "payment:visa": "yes",
        "shop": "supermarket",
        "wheelchair": "yes"
      },
      "geometry": {
        "type": "Point",
        "coordinates": [13.0466154, 52.3967065]
      },
      "id": "node/262989157"
    },
    {
      "type": "Feature",
      "properties": {
        "@id": "way/272562400",
        "addr:city": "Potsdam",
        "addr:country": "DE",
        "addr:housenumber": "11",
        "addr:postcode": "14482",
        "addr:street": "Stephensonstraße",
        "addr:suburb": "Babelsberg",
        "brand": "Netto Marken-Discount",
        "brand:wikidata": "Q879858",
        "brand:wikipedia": "de:Netto Marken-Discount",
        "building": "retail",
        "check_date": "2024-01-15",
        "check_date:opening_hours": "2024-01-15",
        "contact:website": "https://www.netto-online.de/filialen/Potsdam/Stephensonstr-11/7652/",
        "name": "Netto Marken-Discount",
        "opening_hours": "Mo-Sa 07:00-21:00; PH off",
        "roof:shape": "flat",
        "shop": "supermarket",
        "wheelchair": "yes",
        "@geometry": "center"
      },
      "geometry": {
        "type": "Point",
        "coordinates": [13.098687, 52.3909873]
      },
      "id": "way/272562400"
    },
    {
      "type": "Feature",
      "properties": {
        "@id": "node/288014404",
        "addr:city": "Potsdam",
        "addr:country": "DE",
        "addr:housenumber": "29",
        "addr:postcode": "14482",
        "addr:street": "Rudolf-Breitscheid-Straße",
        "addr:suburb": "Babelsberg",
        "automatic_door": "yes",
        "brand": "EDEKA",
        "brand:wikidata": "Q701755",
        "brand:wikipedia": "de:Edeka",
        "check_date:opening_hours": "2024-06-19",
        "contact:email": "edeka.ptsd.rudolfbreitscheidstr@minden.edeka.de",
        "contact:facebook": "https://www.facebook.com/EDEKA",
        "contact:fax": "+49 331 550 3621",
        "contact:instagram": "https://www.instagram.com/edeka/",
        "contact:phone": "+49 331 237 8645",
        "contact:pinterest": "https://www.pinterest.de/edeka/",
        "contact:website": "https://www.edeka.de/eh/minden-hannover/edeka-gabler-rudolf-breitscheid-str.-29/index.jsp",
        "contact:youtube": "https://www.youtube.com/channel/UC4U21wzihiCvS3-SyIvoeEA",
        "door": "sliding",
        "drink:club-mate": "retail",
        "entrance": "main",
        "name": "EDEKA Gabler",
        "opening_hours": "Mo-Sa 07:00-22:00; Su,PH off",
        "operator": "EDEKA Minden-Hannover Stiftung & Co. KG",
        "operator:type": "business",
        "shop": "supermarket",
        "wheelchair": "yes"
      },
      "geometry": {
        "type": "Point",
        "coordinates": [13.092035, 52.3918372]
      },
      "id": "node/288014404"
    },
    {
      "type": "Feature",
      "properties": {
        "@id": "node/290944933",
        "addr:city": "Potsdam",
        "addr:country": "DE",
        "addr:housenumber": "27",
        "addr:postcode": "14471",
        "addr:street": "Breite Straße",
        "brand": "Netto",
        "brand:wikidata": "Q552652",
        "brand:wikipedia": "de:Netto (Handelskette)",
        "contact:email": "service@netto.de",
        "contact:facebook": "https://www.facebook.com/nettodeutschland",
        "contact:instagram": "https://www.instagram.com/nettodeutschland/",
        "contact:pinterest": "https://www.pinterest.de/nettodeutschland/",
        "contact:website": "https://www.netto.de/geschaefte/potsdam/breite-strasse-27/334f1ea208d248c199271fe46ba3a56d/",
        "contact:youtube": "https://www.youtube.com/user/NETTODeutschland",
        "level": "1",
        "name": "Netto",
        "opening_hours": "Mo-Sa 07:00-20:00",
        "operator": "Netto ApS & Co. KG",
        "operator:type": "business",
        "operator:wikidata": "Q552652",
        "operator:wikipedia": "de:Netto (Handelskette)",
        "shop": "supermarket",
        "wheelchair": "yes"
      },
      "geometry": {
        "type": "Point",
        "coordinates": [13.0465656, 52.3969905]
      },
      "id": "node/290944933"
    },
    {
      "type": "Feature",
      "properties": {
        "@id": "way/319854587",
        "addr:city": "Potsdam",
        "addr:country": "DE",
        "addr:housenumber": "177",
        "addr:postcode": "14469",
        "addr:street": "Potsdamer Straße",
        "addr:suburb": "Bornstedt",
        "brand": "ALDI Nord",
        "brand:wikidata": "Q41171373",
        "brand:wikipedia": "de:ALDI Nord",
        "building": "supermarket",
        "building:colour": "grey",
        "building:levels": "1",
        "contact:website": "https://www.aldi-nord.de/filialen-und-oeffnungszeiten.html/l/potsdam/potsdamer-strasse-177/3182359",
        "name": "ALDI",
        "opening_hours": "Mo-Sa 07:00-21:00; Su,PH off",
        "operator": "ALDI GmbH & Co. Kommanditgesellschaft",
        "operator:wikidata": "Q41171373",
        "operator:wikipedia": "de:Aldi",
        "payment:american_express": "yes",
        "payment:apple_pay": "yes",
        "payment:cash": "yes",
        "payment:contactless": "yes",
        "payment:diners_club": "yes",
        "payment:discover_card": "yes",
        "payment:girocard": "yes",
        "payment:google_pay": "yes",
        "payment:maestro": "yes",
        "payment:mastercard": "yes",
        "payment:visa": "yes",
        "roof:shape": "flat",
        "shop": "supermarket",
        "wheelchair": "yes",
        "@geometry": "center"
      },
      "geometry": {
        "type": "Point",
        "coordinates": [13.0234533, 52.4149907]
      },
      "id": "way/319854587"
    },
    {
      "type": "Feature",
      "properties": {
        "@id": "way/396706328",
        "addr:city": "Potsdam",
        "addr:country": "DE",
        "addr:housenumber": "28",
        "addr:postcode": "14476",
        "addr:street": "Potsdamer Chaussee",
        "addr:suburb": "Groß Glienicke",
        "brand": "REWE",
        "brand:wikidata": "Q16968817",
        "brand:wikipedia": "en:REWE",
        "building": "supermarket",
        "building:colour": "grey",
        "contact:phone": "+49 33201 505366",
        "contact:website": "https://www.rewe.de/marktseite/potsdam-ot-gross-glienicke/4040483/rewe-markt-potsdamer-chaussee-28/",
        "diet:vegan": "yes",
        "diet:vegetarian": "yes",
        "internet_access": "wlan",
        "name": "REWE",
        "opening_hours": "Mo-Sa 07:00-22:00; PH,Su off",
        "operator": "Peterson Warenhandels GmbH & Co. KG",
        "operator:type": "business",
        "payment:ep_geldkarte": "no",
        "payment:maestro": "yes",
        "payment:mastercard": "yes",
        "payment:visa": "yes",
        "payment:visa_debit": "yes",
        "shop": "supermarket",
        "wheelchair": "yes",
        "@geometry": "center"
      },
      "geometry": {
        "type": "Point",
        "coordinates": [13.1032587, 52.4713671]
      },
      "id": "way/396706328"
    },
    {
      "type": "Feature",
      "properties": {
        "@id": "node/412876433",
        "addr:city": "Potsdam",
        "addr:country": "DE",
        "addr:housename": "Hauptbahnhof",
        "addr:housenumber": "16",
        "addr:postcode": "14473",
        "addr:street": "Babelsberger Straße",
        "branch": "Babelsberger Straße im Hauptbahnhof",
        "brand": "Bio Company",
        "brand:wikidata": "Q864179",
        "brand:wikipedia": "de:Bio Company",
        "check_date:opening_hours": "2022-07-29",
        "contact:facebook": "https://www.facebook.com/biocompany.de",
        "contact:instagram": "https://www.instagram.com/biocompanyofficial/",
        "contact:twitter": "https://twitter.com/biocompany",
        "contact:website": "https://www.biocompany.de/bio-company-markt-finden/l/potsdam/babelsberger-strasse-16/358378",
        "contact:xing": "https://www.xing.com/companies/biocompany",
        "contact:youtube": "https://www.youtube.com/channel/UCq7vDFL_9XSudAMSvcjV0Dg",
        "diet:halal": "no",
        "diet:kosher": "no",
        "level": "0",
        "name": "Bio Company",
        "opening_hours": "Mo-Sa 08:00-20:00; Su,PH off",
        "opening_hours:bakery": "Mo-Sa 07:30-20:00; Su,PH off",
        "operator": "Bio Company GmbH",
        "operator:type": "business",
        "operator:wikidata": "Q864179",
        "operator:wikipedia": "de:Bio Company",
        "organic": "only",
        "payment:girocard": "yes",
        "payment:mastercard": "yes",
        "payment:visa": "yes",
        "shop": "supermarket",
        "wheelchair": "yes"
      },
      "geometry": {
        "type": "Point",
        "coordinates": [13.0671229, 52.3924368]
      },
      "id": "node/412876433"
    },
    {
      "type": "Feature",
      "properties": {
        "@id": "node/452655620",
        "addr:city": "Potsdam",
        "addr:country": "DE",
        "addr:housenumber": "1",
        "addr:postcode": "14478",
        "addr:street": "Am Moosfenn",
        "brand": "Kaufland",
        "brand:wikidata": "Q685967",
        "brand:wikipedia": "en:Kaufland",
        "check_date:opening_hours": "2022-02-01",
        "contact:phone": "+49 331 888 590",
        "contact:website": "https://filiale.kaufland.de/service/filiale.storeName=DE7340.html",
        "name": "Kaufland",
        "opening_hours": "Mo-Sa 07:00-22:00; PH,Su off",
        "shop": "supermarket",
        "wheelchair": "yes"
      },
      "geometry": {
        "type": "Point",
        "coordinates": [13.0939269, 52.3642612]
      },
      "id": "node/452655620"
    },
    {
      "type": "Feature",
      "properties": {
        "@id": "way/561582495",
        "addr:city": "Potsdam",
        "addr:country": "DE",
        "addr:housenumber": "123-125",
        "addr:postcode": "14482",
        "addr:street": "Großbeerenstraße",
        "brand": "NETTO",
        "brand:wikidata": "Q552652",
        "brand:wikipedia": "de:Netto (Handelskette)",
        "check_date:opening_hours": "2024-03-08",
        "contact:facebook": "https://www.facebook.com/nettodeutschland",
        "contact:pinterest": "https://www.pinterest.de/nettodeutschland/",
        "contact:website": "https://www.netto.de/geschaefte/potsdam/grossbeerenstrasse-123135/fb07fc957ead4fe9b0b25fc5d82a4dd5/",
        "contact:youtube": "https://www.youtube.com/user/NETTODeutschland",
        "name": "NETTO",
        "opening_hours": "Mo-Sa 07:00-21:00; PH,Su off",
        "operator": "NETTO ApS & Co. KG",
        "operator:type": "business",
        "operator:wikidata": "Q552652",
        "shop": "supermarket",
        "wheelchair": "yes",
        "@geometry": "center"
      },
      "geometry": {
        "type": "Point",
        "coordinates": [13.1072505, 52.3849101]
      },
      "id": "way/561582495"
    },
    {
      "type": "Feature",
      "properties": {
        "@id": "way/628878559",
        "addr:city": "Potsdam",
        "addr:country": "DE",
        "addr:housenumber": "177",
        "addr:postcode": "14469",
        "addr:street": "Potsdamer Straße",
        "addr:suburb": "Bornstedt",
        "brand": "REWE",
        "brand:wikidata": "Q16968817",
        "brand:wikipedia": "de:Rewe",
        "building": "supermarket",
        "building:colour": "orange",
        "contact:phone": "+49 331 967 98938",
        "contact:website": "https://www.rewe.de/marktseite/potsdam-bornstedt/1763538/rewe-markt-potsdamer-str-177/",
        "name": "Rewe",
        "opening_hours": "Mo-Sa 07:00-22:00; Su,PH off",
        "operator": "REWE Michael Batz oHG",
        "shop": "supermarket",
        "wheelchair": "yes",
        "@geometry": "center"
      },
      "geometry": {
        "type": "Point",
        "coordinates": [13.0230022, 52.4140711]
      },
      "id": "way/628878559"
    },
    {
      "type": "Feature",
      "properties": {
        "@id": "node/656340886",
        "access": "customers",
        "addr:city": "Potsdam",
        "addr:country": "DE",
        "addr:housenumber": "35",
        "addr:postcode": "14467",
        "addr:street": "Brandenburger Straße",
        "addr:suburb": "Nördliche Innenstadt",
        "brand": "Netto City",
        "brand:wikidata": "Q879858",
        "brand:wikipedia": "de:Netto Marken-Discount",
        "check_date:opening_hours": "2021-07-14",
        "contact:facebook": "https://de-de.facebook.com/nettomarkendiscount/",
        "contact:instagram": "https://www.instagram.com/netto_marken_discount/",
        "contact:website": "https://www.netto-online.de/filialen/Potsdam/Brandenburger-Str-35/5812/",
        "contact:youtube": "https://www.youtube.com/user/nettotv",
        "entrance": "main",
        "name": "Netto City",
        "opening_hours": "Mo-Sa 07:00-20:00; PH,Su off",
        "operator": "Netto Marken-Discount AG & Co. KG",
        "operator:type": "business",
        "operator:wikidata": "Q879858",
        "operator:wikipedia": "de:Netto Marken-Discount",
        "payment:american_express": "yes",
        "payment:cash": "yes",
        "payment:diners_club": "yes",
        "payment:discover_card": "yes",
        "payment:girocard": "yes",
        "payment:maestro": "yes",
        "payment:mastercard": "yes",
        "ref:vatin": "DE811205180",
        "shop": "supermarket",
        "start_date": "2019-11-26",
        "wheelchair": "yes"
      },
      "geometry": {
        "type": "Point",
        "coordinates": [13.0584856, 52.400806]
      },
      "id": "node/656340886"
    },
    {
      "type": "Feature",
      "properties": {
        "@id": "node/942930654",
        "access": "customers",
        "addr:city": "Potsdam",
        "addr:country": "DE",
        "addr:housenumber": "4b",
        "addr:postcode": "14467",
        "addr:street": "Schiffbauergasse",
        "brand": "Bio Company",
        "brand:wikidata": "Q864179",
        "brand:wikipedia": "de:Bio Company",
        "check_date:opening_hours": "2023-11-16",
        "contact:phone": "+49 331 6200962",
        "contact:website": "https://www.biocompany.de/bio-company-markt-finden/l/potsdam/schiffbauergasse-4b/358381",
        "entrance": "main",
        "name": "Bio Company",
        "opening_hours": "Mo-Sa 08:00-20:00",
        "organic": "only",
        "shop": "supermarket",
        "toilets:wheelchair": "no",
        "wheelchair": "yes"
      },
      "geometry": {
        "type": "Point",
        "coordinates": [13.0708379, 52.4028842]
      },
      "id": "node/942930654"
    },
    {
      "type": "Feature",
      "properties": {
        "@id": "node/1038557992",
        "addr:city": "Potsdam",
        "addr:country": "DE",
        "addr:housenumber": "102",
        "addr:postcode": "14476",
        "addr:street": "Potsdamer Chaussee",
        "addr:suburb": "Groß Glienicke",
        "check_date:opening_hours": "2021-08-14",
        "entrance": "yes",
        "name": "Penny",
        "opening_hours": "Mo-Sa 07:00-21:00",
        "payment:credit_cards": "yes",
        "payment:debit_cards": "yes",
        "shop": "supermarket",
        "wheelchair": "limited"
      },
      "geometry": {
        "type": "Point",
        "coordinates": [13.1011587, 52.4700197]
      },
      "id": "node/1038557992"
    },
    {
      "type": "Feature",
      "properties": {
        "@id": "node/1104711635",
        "addr:city": "Potsdam",
        "addr:country": "DE",
        "addr:housename": "Stern-Center",
        "addr:housenumber": "1-10",
        "addr:postcode": "14480",
        "addr:street": "Stern-Center",
        "addr:suburb": "Drewitz",
        "brand": "EDEKA",
        "brand:wikidata": "Q701755",
        "brand:wikipedia": "de:Edeka",
        "contact:phone": "+49 331 669 60",
        "contact:website": "https://www.edeka.de/eh/minden-hannover/edeka-center-stern-center-stern-center-1-10/index.jsp",
        "level": "0",
        "name": "Edeka",
        "old_name": "Real",
        "opening_hours": "Mo-We 08:00-20:00; Th-Sa 08:00-22:00; PH,Su off",
        "operator:type": "business",
        "operator:wikidata": "Q698473",
        "operator:wikipedia": "de:Edeka",
        "shop": "supermarket",
        "wheelchair": "yes"
      },
      "geometry": {
        "type": "Point",
        "coordinates": [13.1366143, 52.3714075]
      },
      "id": "node/1104711635"
    },
    {
      "type": "Feature",
      "properties": {
        "@id": "node/2043516478",
        "addr:city": "Potsdam",
        "addr:country": "DE",
        "addr:housenumber": "20-22",
        "addr:postcode": "14467",
        "addr:street": "Gutenbergstraße",
        "brand": "Bio Company",
        "brand:wikidata": "Q864179",
        "brand:wikipedia": "de:Bio Company",
        "check_date:opening_hours": "2024-08-09",
        "contact:phone": "+49 331 64748360",
        "contact:website": "https://www.biocompany.de/bio-company-markt-finden/l/potsdam/gutenbergstrasse-20-22/358379",
        "name": "Bio Company",
        "opening_hours": "Mo-Sa 08:00-20:00",
        "operator": "Bio Company",
        "organic": "only",
        "payment:girocard": "yes",
        "payment:mastercard": "yes",
        "payment:visa": "yes",
        "shop": "supermarket",
        "wheelchair": "yes"
      },
      "geometry": {
        "type": "Point",
        "coordinates": [13.0547112, 52.4012217]
      },
      "id": "node/2043516478"
    },
    {
      "type": "Feature",
      "properties": {
        "@id": "node/2471892408",
        "brand": "REWE",
        "brand:wikidata": "Q16968817",
        "brand:wikipedia": "en:REWE",
        "check_date:opening_hours": "2023-10-15",
        "contact:website": "https://www.rewe.de/marktseite/potsdam-bornstedt/565342/rewe-markt-ludwig-boltzmann-strasse-8/",
        "contact:youtube": "https://www.youtube.com/user/REWEDeutschland",
        "diet:vegan": "yes",
        "entrance": "main",
        "internet_access": "wlan",
        "name": "Rewe",
        "opening_hours": "Mo-Sa 07:00-22:00; PH,Su off",
        "operator": "Michael Batz OHG",
        "operator:type": "business",
        "organic": "yes",
        "shop": "supermarket",
        "wheelchair": "yes"
      },
      "geometry": {
        "type": "Point",
        "coordinates": [13.0368745, 52.4134134]
      },
      "id": "node/2471892408"
    },
    {
      "type": "Feature",
      "properties": {
        "@id": "node/2869764250",
        "access": "customers",
        "addr:city": "Potsdam",
        "addr:country": "DE",
        "addr:housenumber": "19",
        "addr:postcode": "14469",
        "addr:street": "Nedlitzer Straße",
        "brand": "Bio Company",
        "brand:wikidata": "Q864179",
        "brand:wikipedia": "de:Bio Company",
        "contact:facebook": "https://www.facebook.com/biocompany.de",
        "contact:instagram": "https://www.instagram.com/biocompanyofficial/",
        "contact:twitter": "https://twitter.com/biocompany",
        "contact:website": "https://www.biocompany.de/bio-company-markt-finden/l/potsdam/nedlitzer-strasse-19/358380",
        "contact:youtube": "https://www.youtube.com/channel/UCq7vDFL_9XSudAMSvcjV0Dg",
        "name": "Bio Company",
        "opening_hours": "Mo-Sa 08:00-20:00; PH,Su off",
        "organic": "only",
        "payment:girocard": "yes",
        "payment:mastercard": "yes",
        "payment:visa": "yes",
        "shop": "supermarket",
        "wheelchair": "yes"
      },
      "geometry": {
        "type": "Point",
        "coordinates": [13.0543118, 52.4237497]
      },
      "id": "node/2869764250"
    },
    {
      "type": "Feature",
      "properties": {
        "@id": "node/2872542913",
        "access": "customers",
        "addr:city": "Potsdam",
        "addr:country": "DE",
        "addr:housenumber": "19c",
        "addr:postcode": "14469",
        "addr:street": "Nedlitzer Straße",
        "brand": "REWE",
        "brand:wikidata": "Q16968817",
        "contact:phone": "+49 331 237 3520",
        "contact:website": "https://www.rewe.de/marktseite/potsdam/540474/rewe-markt-nedlitzer-str-19c/",
        "name": "Rewe",
        "opening_hours": "Mo-Sa 06:00-22:00; Dec 24 07:00-13:00; PH,Su off",
        "operator": "Supermärkte Nord Vertriebs GmbH & Co. KG",
        "operator:type": "business",
        "payment:american_express": "yes",
        "payment:girocard": "yes",
        "payment:maestro": "yes",
        "payment:mastercard": "yes",
        "payment:visa": "yes",
        "shop": "supermarket",
        "toilets:wheelchair": "yes",
        "wheelchair": "yes"
      },
      "geometry": {
        "type": "Point",
        "coordinates": [13.0530668, 52.4235599]
      },
      "id": "node/2872542913"
    },
    {
      "type": "Feature",
      "properties": {
        "@id": "node/3097316493",
        "addr:city": "Potsdam",
        "addr:country": "DE",
        "addr:housename": "Havel-Nuthe-Center",
        "addr:housenumber": "1-3",
        "addr:postcode": "14480",
        "addr:street": "Konrad-Wolf-Allee",
        "addr:suburb": "Drewitz",
        "brand": "EDEKA",
        "brand:wikidata": "Q701755",
        "brand:wikipedia": "de:Edeka",
        "check_date:opening_hours": "2023-08-14",
        "contact:fax": "+49 331 625 441",
        "contact:phone": "+49 331 613 079",
        "contact:website": "https://www.edeka.de/",
        "name": "nah & gut Mund",
        "opening_hours": "Mo-Sa 07:00-20:00; Su,PH off",
        "operator": "EDEKA",
        "shop": "supermarket",
        "wheelchair": "yes"
      },
      "geometry": {
        "type": "Point",
        "coordinates": [13.1419154, 52.3701641]
      },
      "id": "node/3097316493"
    },
    {
      "type": "Feature",
      "properties": {
        "@id": "node/3327131753",
        "addr:city": "Potsdam",
        "addr:country": "DE",
        "addr:housenumber": "16",
        "addr:postcode": "14480",
        "addr:street": "Galileistraße",
        "brand": "Nahkauf",
        "brand:wikidata": "Q57515238",
        "name": "Nahkauf",
        "opening_hours": "Mo-Fr 07:00-20:00; Sa 07:00-18:00",
        "operator": "Prosperi GmbH",
        "phone": "+49 331 623072",
        "shop": "supermarket",
        "website": "https://www.nahkauf.de/maerkte/potsdam-42612526-prosperi-handelsgesellschaft-mbh-galileistr-16",
        "wheelchair": "yes"
      },
      "geometry": {
        "type": "Point",
        "coordinates": [13.1399691, 52.3759423]
      },
      "id": "node/3327131753"
    },
    {
      "type": "Feature",
      "properties": {
        "@id": "node/3767159946",
        "addr:city": "Potsdam",
        "addr:country": "DE",
        "addr:housenumber": "65",
        "addr:postcode": "14482",
        "addr:street": "Alt Nowawes",
        "addr:suburb": "Babelsberg",
        "brand": "EDEKA",
        "brand:wikidata": "Q701755",
        "brand:wikipedia": "de:Edeka",
        "check_date:opening_hours": "2024-08-19",
        "contact:email": "e4079442@minden.edeka.de",
        "contact:facebook": "https://www.facebook.com/EDEKA",
        "contact:instagram": "https://www.instagram.com/edeka/",
        "contact:phone": "+49 331 740 4951",
        "contact:pinterest": "https://www.pinterest.de/edeka/",
        "contact:website": "https://www.edeka.de/eh/minden-hannover/edeka-meinke-alt-nowawes-65/index.jsp",
        "contact:youtube": "https://www.youtube.com/channel/UC4U21wzihiCvS3-SyIvoeEA",
        "drink:club-mate": "retail",
        "entrance": "main",
        "name": "EDEKA Meinke",
        "opening_hours": "Mo-Sa 08:00-20:00; Su,PH off",
        "operator": "Jacqueline Meinke e. K.",
        "operator:type": "private",
        "ref": "2466",
        "shop": "supermarket",
        "toilets:wheelchair": "yes",
        "wheelchair": "yes"
      },
      "geometry": {
        "type": "Point",
        "coordinates": [13.0904043, 52.3959871]
      },
      "id": "node/3767159946"
    },
    {
      "type": "Feature",
      "properties": {
        "@id": "node/4404084986",
        "addr:city": "Potsdam",
        "addr:country": "DE",
        "addr:housenumber": "4",
        "addr:postcode": "14469",
        "addr:street": "Alexander-Klein-Straße",
        "brand": "PENNY",
        "brand:wikidata": "Q284688",
        "brand:wikipedia": "en:Penny (supermarket)",
        "check_date:opening_hours": "2022-07-06",
        "contact:facebook": "https://www.facebook.com/PennyDeutschland",
        "contact:instagram": "https://www.instagram.com/pennydeutschland/",
        "contact:phone": "+49 221 20199959",
        "contact:website": "https://www.penny.de/markt/potsdam/562085/penny-bornstedt-alexander-klein-str-4",
        "contact:youtube": "https://www.youtube.com/user/ErstmalzuPenny",
        "name": "Penny",
        "opening_hours": "Mo-Sa 07:00-22:00; PH,Su closed",
        "operator": "Penny-Markt GmbH",
        "operator:type": "business",
        "operator:wikidata": "Q284688",
        "operator:wikipedia": "de:Penny-Markt",
        "shop": "supermarket",
        "wheelchair": "yes"
      },
      "geometry": {
        "type": "Point",
        "coordinates": [13.0374893, 52.4142144]
      },
      "id": "node/4404084986"
    },
    {
      "type": "Feature",
      "properties": {
        "@id": "node/5262080209",
        "access": "customers",
        "addr:city": "Potsdam",
        "addr:country": "DE",
        "addr:housenumber": "5",
        "addr:postcode": "14480",
        "addr:street": "Johannes-Kepler-Platz",
        "addr:suburb": "Stern",
        "brand": "REWE",
        "brand:wikidata": "Q16968817",
        "brand:wikipedia": "de:Rewe",
        "contact:phone": "+49 331 6003619",
        "contact:website": "https://www.rewe.de/marktseite/potsdam/4040088/rewe-markt-johannes-kepler-platz-5/",
        "entrance": "main",
        "name": "REWE",
        "opening_hours": "Mo-Sa 07:00-22:00; PH,Su off",
        "operator": "REWE Markt Siegfried Grube oHG",
        "operator:type": "business",
        "shop": "supermarket",
        "wheelchair": "yes"
      },
      "geometry": {
        "type": "Point",
        "coordinates": [13.1291704, 52.3760868]
      },
      "id": "node/5262080209"
    },
    {
      "type": "Feature",
      "properties": {
        "@id": "node/5310387719",
        "addr:city": "Potsdam",
        "addr:country": "DE",
        "addr:housenumber": "8",
        "addr:postcode": "14480",
        "addr:street": "Anni-von-Gottberg-Straße",
        "addr:suburb": "Kirchsteigfeld",
        "brand": "REWE",
        "brand:wikidata": "Q16968817",
        "brand:wikipedia": "de:Rewe",
        "contact:phone": "+49 331 600 33528",
        "contact:website": "https://www.rewe.de/marktseite/potsdam/1931396/rewe-markt-anni-von-gottberg-str-8/",
        "name": "Rewe City",
        "opening_hours": "Mo-Sa 07:00-22:00; PH off",
        "operator": "REWE Markt D. Henke oHG",
        "operator:type": "business",
        "shop": "supermarket"
      },
      "geometry": {
        "type": "Point",
        "coordinates": [13.136187, 52.3618081]
      },
      "id": "node/5310387719"
    },
    {
      "type": "Feature",
      "properties": {
        "@id": "node/5346983665",
        "access": "customers",
        "addr:city": "Potsdam",
        "addr:country": "DE",
        "addr:housenumber": "15",
        "addr:postcode": "14480",
        "addr:street": "Neuendorfer Straße",
        "addr:suburb": "Stern",
        "brand": "Penny",
        "brand:wikidata": "Q284688",
        "brand:wikipedia": "en:Penny (supermarket)",
        "contact:facebook": "https://www.facebook.com/PennyDeutschland",
        "contact:instagram": "https://www.instagram.com/pennydeutschland/",
        "contact:phone": "+49 221 20199959",
        "contact:website": "https://www.penny.de/markt/potsdam/561524/penny-am-stern-neuendorfer-str-15",
        "contact:youtube": "https://www.youtube.com/user/ErstmalzuPenny",
        "entrance": "main",
        "name": "Penny",
        "opening_hours": "Mo-Sa 07:00-21:00; PH,Su off",
        "operator": "Penny-Markt GmbH",
        "operator:type": "business",
        "operator:wikidata": "Q284688",
        "operator:wikipedia": "de:Penny-Markt",
        "shop": "supermarket",
        "wheelchair": "yes"
      },
      "geometry": {
        "type": "Point",
        "coordinates": [13.1292532, 52.3771719]
      },
      "id": "node/5346983665"
    },
    {
      "type": "Feature",
      "properties": {
        "@id": "node/5429553111",
        "access": "customers",
        "addr:city": "Potsdam",
        "addr:country": "DE",
        "addr:housenumber": "193",
        "addr:postcode": "14482",
        "addr:street": "Rudolf-Breitscheid-Straße",
        "addr:suburb": "Babelsberg",
        "automatic_door": "yes",
        "brand": "EDEKA",
        "brand:wikidata": "Q701755",
        "brand:wikipedia": "de:Edeka",
        "check_date:opening_hours": "2023-07-11",
        "contact:email": "info@edeka.de",
        "contact:facebook": "https://www.facebook.com/EDEKA",
        "contact:fax": "+49 331 237 8154",
        "contact:instagram": "https://www.instagram.com/edeka/",
        "contact:phone": "+49 331 237 8121",
        "contact:pinterest": "https://www.pinterest.de/edeka/",
        "contact:website": "https://www.edeka.de/eh/minden-hannover/edeka-franeck-rudolf-breitscheid-str.-193/index.jsp",
        "contact:youtube": "https://www.youtube.com/channel/UC4U21wzihiCvS3-SyIvoeEA",
        "door": "sliding",
        "entrance": "main",
        "name": "EDEKA Franeck",
        "opening_hours": "Mo-Sa 07:00-20:00; Su,PH off",
        "operator": "Kerstin Franeck",
        "shop": "supermarket",
        "wheelchair": "yes"
      },
      "geometry": {
        "type": "Point",
        "coordinates": [13.1259443, 52.395012]
      },
      "id": "node/5429553111"
    },
    {
      "type": "Feature",
      "properties": {
        "@id": "node/5588078050",
        "access": "customers",
        "addr:city": "Potsdam",
        "addr:country": "DE",
        "addr:housenumber": "1d",
        "addr:postcode": "14467",
        "addr:street": "Hebbelstraße",
        "branch": "Alnatura",
        "brand": "Alnatura",
        "brand:wikidata": "Q876811",
        "brand:wikipedia": "de:Alnatura",
        "changing_table": "yes",
        "changing_table:count": "1",
        "changing_table:fee": "no",
        "changing_table:location": "wheelchair_toilet",
        "check_date:opening_hours": "2022-04-11",
        "contact:facebook": "https://www.facebook.com/Alnatura/",
        "contact:instagram": "https://www.instagram.com/alnatura/",
        "contact:phone": "+49 331 237 04473",
        "contact:pinterest": "https://www.pinterest.de/alnatura/",
        "contact:twitter": "https://twitter.com/alnatura",
        "contact:website": "https://www.alnatura.de/de-de/maerkte/marktseiten/potsdam/",
        "contact:youtube": "https://www.youtube.com/user/alnatura",
        "diet:halal": "no",
        "diet:kosher": "no",
        "kids_area": "outdoor",
        "kids_area:outdoor": "yes",
        "name": "Alnatura Super Natur Markt",
        "opening_hours": "Mo-Sa 08:00-20:00; PH,Su off",
        "operator": "Alnatura Produktions- und Handels GmbH",
        "operator:type": "business",
        "operator:wikidata": "Q876811",
        "operator:wikipedia": "de:Alnatura",
        "organic": "only",
        "shop": "supermarket",
        "short_name": "Alnatura",
        "start_date": "2018-04-26",
        "toilets:wheelchair": "yes",
        "wheelchair": "yes"
      },
      "geometry": {
        "type": "Point",
        "coordinates": [13.0635085, 52.4022069]
      },
      "id": "node/5588078050"
    },
    {
      "type": "Feature",
      "properties": {
        "@id": "node/5696210278",
        "addr:city": "Potsdam",
        "addr:country": "DE",
        "addr:housenumber": "97",
        "addr:postcode": "14469",
        "addr:street": "Kaiser-Friedrich-Straße",
        "addr:suburb": "Eiche",
        "brand": "Netto Marken-Discount",
        "brand:wikidata": "Q879858",
        "brand:wikipedia": "de:Netto Marken-Discount",
        "check_date": "2024-09-22",
        "contact:facebook": "https://de-de.facebook.com/nettomarkendiscount/",
        "contact:instagram": "https://www.instagram.com/netto_marken_discount/",
        "contact:website": "https://www.netto-online.de/filialen/Potsdam-Eiche/Kaiser-Friedrich-Str-97/5842/",
        "contact:youtube": "https://www.youtube.com/user/nettotv",
        "internet_access": "wlan",
        "internet_access:fee": "no",
        "name": "Netto Marken-Discount",
        "opening_date": "2020-10-13",
        "opening_hours": "Mo-Sa 07:00-21:00; Dec 31 07:00-18:00; PH,Su off",
        "operator": "Netto Marken-Discount AG & Co. KG",
        "operator:type": "business",
        "ref:vatin": "DE133822409",
        "shop": "supermarket",
        "wheelchair": "yes"
      },
      "geometry": {
        "type": "Point",
        "coordinates": [12.989945, 52.4045073]
      },
      "id": "node/5696210278"
    },
    {
      "type": "Feature",
      "properties": {
        "@id": "node/6117179950",
        "access": "customers",
        "addr:city": "Potsdam",
        "addr:country": "DE",
        "addr:housenumber": "15",
        "addr:postcode": "14482",
        "addr:street": "Marlene-Dietrich-Allee",
        "addr:suburb": "Babelsberg",
        "automatic_door": "infrared",
        "brand": "EDEKA",
        "brand:wikidata": "Q701755",
        "brand:wikipedia": "de:Edeka",
        "camera:type": "dome",
        "check_date:opening_hours": "2024-02-19",
        "contact:email": "e801312@minden.edeka.de",
        "contact:facebook": "https://www.facebook.com/EDEKA",
        "contact:instagram": "https://www.instagram.com/edeka/",
        "contact:phone": "+49 331 740 08000",
        "contact:pinterest": "https://www.pinterest.de/edeka/",
        "contact:website": "https://www.edeka.de/eh/minden-hannover/edeka-m%C3%BCller-marlene-dietrich-allee-15/index.jsp",
        "contact:youtube": "https://www.youtube.com/channel/UC4U21wzihiCvS3-SyIvoeEA",
        "door": "automatic",
        "entrance": "main",
        "level": "0",
        "man_made": "surveillance",
        "name": "EDEKA Müller",
        "opening_hours": "Mo-Sa 07:00-21:00; PH,Su off",
        "operator": "EDEKA Minden-Hannover Stiftung & Co. KG",
        "operator:type": "business",
        "shop": "supermarket",
        "surveillance": "indoor",
        "surveillance:type": "camera",
        "surveillance:zone": "shop",
        "wheelchair": "yes"
      },
      "geometry": {
        "type": "Point",
        "coordinates": [13.1174531, 52.3905278]
      },
      "id": "node/6117179950"
    },
    {
      "type": "Feature",
      "properties": {
        "@id": "node/7013670902",
        "access": "customers",
        "addr:city": "Potsdam",
        "addr:country": "DE",
        "addr:housenumber": "8",
        "addr:postcode": "14478",
        "addr:street": "Zum Teufelssee",
        "brand": "EDEKA",
        "brand:wikidata": "Q701755",
        "brand:wikipedia": "en:Edeka",
        "contact:facebook": "https://www.facebook.com/EDEKA",
        "contact:fax": "+49 331 870 00145",
        "contact:instagram": "https://www.instagram.com/edeka/",
        "contact:phone": "+49 331 870 00063",
        "contact:pinterest": "https://www.pinterest.de/edeka/",
        "contact:website": "https://www.edeka.de/eh/minden-hannover/edeka-zum-teufelssee-zum-teufelssee-8/index.jsp",
        "contact:youtube": "https://www.youtube.com/channel/UC4U21wzihiCvS3-SyIvoeEA",
        "entrance": "main",
        "name": "EDEKA Zum Teufelssee",
        "opening_hours": "Mo-Sa 07:00-20:00; Dec 24 07:00-14:00; Dec 31 07:00-16:00; PH,Su off",
        "operator": "EDEKA Minden-Hannover Stiftung & Co. KG",
        "operator:type": "business",
        "operator:wikidata": "Q701755",
        "operator:wikipedia": "de:Edeka",
        "shop": "supermarket",
        "wheelchair": "yes"
      },
      "geometry": {
        "type": "Point",
        "coordinates": [13.0906798, 52.3601615]
      },
      "id": "node/7013670902"
    },
    {
      "type": "Feature",
      "properties": {
        "@id": "node/7231382928",
        "addr:city": "Potsdam",
        "addr:country": "DE",
        "addr:housenumber": "145",
        "addr:postcode": "14469",
        "addr:street": "Georg-Hermann-Allee",
        "brand": "ALDI Nord",
        "brand:wikidata": "Q41171373",
        "brand:wikipedia": "de:ALDI Nord",
        "contact:website": "https://www.aldi-nord.de/filialen-und-oeffnungszeiten.html/l/potsdam/georg-hermann-allee-145/3181925",
        "name": "ALDI",
        "opening_hours": "Mo-Sa 07:00-21:00",
        "payment:american_express": "yes",
        "payment:apple_pay": "yes",
        "payment:cash": "yes",
        "payment:contactless": "yes",
        "payment:diners_club": "yes",
        "payment:discover_card": "yes",
        "payment:girocard": "yes",
        "payment:google_pay": "yes",
        "payment:maestro": "yes",
        "payment:mastercard": "yes",
        "payment:visa": "yes",
        "shop": "supermarket",
        "wheelchair": "yes"
      },
      "geometry": {
        "type": "Point",
        "coordinates": [13.0533901, 52.4251354]
      },
      "id": "node/7231382928"
    },
    {
      "type": "Feature",
      "properties": {
        "@id": "node/7802915142",
        "addr:city": "Potsdam",
        "addr:country": "DE",
        "addr:housenumber": "50",
        "addr:postcode": "14467",
        "addr:street": "Am Kanal",
        "contact:phone": "+49 3318170670",
        "description": "Russische Spezialitäten",
        "door": "hinged",
        "level": "0",
        "name": "Ledo",
        "opening_hours": "Mo-Sa 08:00-20:00",
        "payment:credit_cards": "no",
        "payment:debit_cards": "yes",
        "payment:description": "EC-Karte ab 10 €",
        "payment:girocard": "yes",
        "shop": "supermarket",
        "website": "https://www.ledo-supermarkt.de/",
        "wheelchair": "limited"
      },
      "geometry": {
        "type": "Point",
        "coordinates": [13.0615253, 52.3974218]
      },
      "id": "node/7802915142"
    },
    {
      "type": "Feature",
      "properties": {
        "@id": "node/8266902764",
        "name": "Nahkauf",
        "shop": "supermarket"
      },
      "geometry": {
        "type": "Point",
        "coordinates": [13.0209925, 52.4675084]
      },
      "id": "node/8266902764"
    },
    {
      "type": "Feature",
      "properties": {
        "@id": "node/9788854035",
        "brand": "EDEKA",
        "brand:wikidata": "Q701755",
        "check_date": "2024-01-08",
        "contact:email": "E408386@MINDEN.EDEKA.DE",
        "contact:phone": "+49 331 951 270 39",
        "contact:website": "https://www.edeka.de/eh/minden-hannover/edeka-schlender-am-kanal-14/index.jsp",
        "name": "Edeka Schlender",
        "opening_hours": "Mo-Sa 07:00-21:00",
        "payment:cash": "yes",
        "payment:credit_cards": "yes",
        "payment:debit_cards": "yes",
        "shop": "supermarket"
      },
      "geometry": {
        "type": "Point",
        "coordinates": [13.0623746, 52.3981131]
      },
      "id": "node/9788854035"
    },
    {
      "type": "Feature",
      "properties": {
        "@id": "node/10943590832",
        "addr:city": "Potsdam",
        "addr:country": "DE",
        "addr:housenumber": "23",
        "addr:postcode": "14467",
        "addr:street": "Hegelallee",
        "contact:facebook": "https://www.facebook.com/MeinBioMarkt",
        "contact:phone": "+49 331 270 2063",
        "contact:website": "https://www.biomarkt.de/",
        "diet:vegetarian": "only",
        "opening_hours": "Mo-Fr 09:00-19:00; Sa 09:00-16:00; PH off",
        "organic": "only",
        "shop": "supermarket",
        "wheelchair": "yes"
      },
      "geometry": {
        "type": "Point",
        "coordinates": [13.0482988, 52.4022508]
      },
      "id": "node/10943590832"
    },
    {
      "type": "Feature",
      "properties": {
        "@id": "node/11131019418",
        "addr:city": "Potsdam",
        "addr:country": "DE",
        "addr:housenumber": "132",
        "addr:postcode": "14471",
        "addr:street": "Zeppelinstraße",
        "brand": "Kaufland",
        "brand:wikidata": "Q685967",
        "brand:wikipedia": "en:Kaufland",
        "check_date:opening_hours": "2024-09-23",
        "name": "Kaufland",
        "opening_hours": "Mo-Sa 07:00-22:00; PH off",
        "payment:cards": "yes",
        "payment:cash": "yes",
        "payment:contactless": "yes",
        "shop": "supermarket",
        "start_date": "2011",
        "wheelchair": "yes"
      },
      "geometry": {
        "type": "Point",
        "coordinates": [13.0302773, 52.3892558]
      },
      "id": "node/11131019418"
    },
    {
      "type": "Feature",
      "properties": {
        "@id": "node/11495436276",
        "addr:city": "Potsdam",
        "addr:housenumber": "31-33",
        "addr:postcode": "14480",
        "addr:street": "Gerlachstraße",
        "contact:facebook": "https://www.facebook.com/people/Phung-Asia-Markt-Potsdam/pfbid02o3cQ9bvp9QpdSX7L5qTTnjWvrXnFL89n5PxRUWNmEiQaKEX5bkQTi6tcEF7m77Qjl/",
        "cuisine": "asian",
        "name": "Mr. Phung Asiamarkt",
        "payment:cash": "yes",
        "phone": "+49 1520 6728786",
        "shop": "supermarket"
      },
      "geometry": {
        "type": "Point",
        "coordinates": [13.134399, 52.3690014]
      },
      "id": "node/11495436276"
    },
    {
      "type": "Feature",
      "properties": {},
      "geometry": {
        "coordinates": [
          [13.036984752167427, 52.44294682918323],
          [13.104136363708932, 52.42930561232774],
          [13.107179508219616, 52.4068669819292],
          [13.012452279420359, 52.430986980729074],
          [13.014283607567762, 52.44632022809634]
        ],
        "type": "LineString"
      }
    }
  ]
}
